[{"OBJECT_NAME":"ZACUBE-1 (TSHEPISOSAT)","OBJECT_ID":"2013-066B","EPOCH":"2026-03-04T20:40:20.716032","MEAN_MOTION":15.00265604,"ECCENTRICITY":0.0041804,"INCLINATION":97.8184,"RA_OF_ASC_NODE":25.6614,"ARG_OF_PERICENTER":236.261,"MEAN_ANOMALY":123.4626,"EPHEMERIS_TYPE":0,"CLASSIFICATION_TYPE":"U","NORAD_CAT_ID":39417,"ELEMENT_SET_NO":999,"REV_AT_EPOCH":66508,"BSTAR":0.00056258,"MEAN_MOTION_DOT":7.114e-5,"MEAN_MOTION_DDOT":0},{"OBJECT_NAME":"WNISAT-1","OBJECT_ID":"2013-066H","EPOCH":"2026-03-04T16:32:27.693024","MEAN_MOTION":14.57849387,"ECCENTRICITY":0.0163224,"INCLINATION":97.703,"RA_OF_ASC_NODE":220.3631,"ARG_OF_PERICENTER":200.6278,"MEAN_ANOMALY":158.8284,"EPHEMERIS_TYPE":0,"CLASSIFICATION_TYPE":"U","NORAD_CAT_ID":39423,"ELEMENT_SET_NO":999,"REV_AT_EPOCH":65150,"BSTAR":0.00047822,"MEAN_MOTION_DOT":2.582e-5,"MEAN_MOTION_DDOT":0},{"OBJECT_NAME":"TRITON-1","OBJECT_ID":"2013-066M","EPOCH":"2026-03-04T19:22:16.838112","MEAN_MOTION":14.81165315,"ECCENTRICITY":0.0089808,"INCLINATION":97.8306,"RA_OF_ASC_NODE":336.0107,"ARG_OF_PERICENTER":213.7473,"MEAN_ANOMALY":145.8003,"EPHEMERIS_TYPE":0,"CLASSIFICATION_TYPE":"U","NORAD_CAT_ID":39427,"ELEMENT_SET_NO":999,"REV_AT_EPOCH":65863,"BSTAR":0.00047048,"MEAN_MOTION_DOT":3.866e-5,"MEAN_MOTION_DDOT":0},{"OBJECT_NAME":"GOMX-1","OBJECT_ID":"2013-066Q","EPOCH":"2026-03-04T20:28:01.953696","MEAN_MOTION":14.69076086,"ECCENTRICITY":0.0130548,"INCLINATION":97.6569,"RA_OF_ASC_NODE":270.8598,"ARG_OF_PERICENTER":52.9165,"MEAN_ANOMALY":308.3893,"EPHEMERIS_TYPE":0,"CLASSIFICATION_TYPE":"U","NORAD_CAT_ID":39430,"ELEMENT_SET_NO":999,"REV_AT_EPOCH":65459,"BSTAR":0.00042115,"MEAN_MOTION_DOT":2.767e-5,"MEAN_MOTION_DDOT":0},{"OBJECT_NAME":"CUBEBUG-2 (LO-74)","OBJECT_ID":"2013-066AA","EPOCH":"2026-03-04T19:19:04.540224","MEAN_MOTION":14.9288232,"ECCENTRICITY":0.0059286,"INCLINATION":97.8816,"RA_OF_ASC_NODE":12.4703,"ARG_OF_PERICENTER":15.3033,"MEAN_ANOMALY":344.9962,"EPHEMERIS_TYPE":0,"CLASSIFICATION_TYPE":"U","NORAD_CAT_ID":39440,"ELEMENT_SET_NO":999,"REV_AT_EPOCH":66141,"BSTAR":0.00084552,"MEAN_MOTION_DOT":9.013e-5,"MEAN_MOTION_DDOT":0},{"OBJECT_NAME":"NEE-02 KRYSAOR","OBJECT_ID":"2013-066AB","EPOCH":"2026-03-04T20:48:28.939104","MEAN_MOTION":14.86123379,"ECCENTRICITY":0.0068102,"INCLINATION":97.8818,"RA_OF_ASC_NODE":3.9113,"ARG_OF_PERICENTER":52.5526,"MEAN_ANOMALY":308.1858,"EPHEMERIS_TYPE":0,"CLASSIFICATION_TYPE":"U","NORAD_CAT_ID":39441,"ELEMENT_SET_NO":999,"REV_AT_EPOCH":66070,"BSTAR":0.00046163,"MEAN_MOTION_DOT":4.163e-5,"MEAN_MOTION_DDOT":0},{"OBJECT_NAME":"FUNCUBE-1 (AO-73)","OBJECT_ID":"2013-066AE","EPOCH":"2026-03-04T09:33:50.685984","MEAN_MOTION":15.07790976,"ECCENTRICITY":0.00367061,"INCLINATION":97.8175,"RA_OF_ASC_NODE":32.8468,"ARG_OF_PERICENTER":197.5791,"MEAN_ANOMALY":162.4169,"EPHEMERIS_TYPE":0,"CLASSIFICATION_TYPE":"U","NORAD_CAT_ID":39444,"ELEMENT_SET_NO":999,"REV_AT_EPOCH":66386,"BSTAR":0.00097976762,"MEAN_MOTION_DOT":0.00015175,"MEAN_MOTION_DDOT":0},{"OBJECT_NAME":"UWE-3","OBJECT_ID":"2013-066AG","EPOCH":"2026-03-04T15:31:29.717472","MEAN_MOTION":14.96109228,"ECCENTRICITY":0.0048758,"INCLINATION":97.8595,"RA_OF_ASC_NODE":19.1594,"ARG_OF_PERICENTER":309.847,"MEAN_ANOMALY":49.8465,"EPHEMERIS_TYPE":0,"CLASSIFICATION_TYPE":"U","NORAD_CAT_ID":39446,"ELEMENT_SET_NO":999,"REV_AT_EPOCH":66194,"BSTAR":0.0006602,"MEAN_MOTION_DOT":7.547e-5,"MEAN_MOTION_DDOT":0},{"OBJECT_NAME":"BRITE-CA1 (TORONTO)","OBJECT_ID":"2014-033L","EPOCH":"2026-03-04T07:53:05.506944","MEAN_MOTION":14.72445502,"ECCENTRICITY":0.007771,"INCLINATION":97.9558,"RA_OF_ASC_NODE":194.3075,"ARG_OF_PERICENTER":252.31,"MEAN_ANOMALY":106.9613,"EPHEMERIS_TYPE":0,"CLASSIFICATION_TYPE":"U","NORAD_CAT_ID":40020,"ELEMENT_SET_NO":999,"REV_AT_EPOCH":62678,"BSTAR":0.00029920168,"MEAN_MOTION_DOT":1.935e-5,"MEAN_MOTION_DDOT":0},{"OBJECT_NAME":"DUCHIFAT-1","OBJECT_ID":"2014-033M","EPOCH":"2026-03-04T08:08:59.838144","MEAN_MOTION":15.49057269,"ECCENTRICITY":0.00065986,"INCLINATION":98.0635,"RA_OF_ASC_NODE":109.1395,"ARG_OF_PERICENTER":99.603,"MEAN_ANOMALY":260.5965,"EPHEMERIS_TYPE":0,"CLASSIFICATION_TYPE":"U","NORAD_CAT_ID":40021,"ELEMENT_SET_NO":999,"REV_AT_EPOCH":63944,"BSTAR":0.0016453528,"MEAN_MOTION_DOT":0.00090082,"MEAN_MOTION_DDOT":0},{"OBJECT_NAME":"NANOSATC-BR1","OBJECT_ID":"2014-033Q","EPOCH":"2026-03-04T00:33:41.887872","MEAN_MOTION":15.27859132,"ECCENTRICITY":0.00040024,"INCLINATION":98.0836,"RA_OF_ASC_NODE":86.3172,"ARG_OF_PERICENTER":164.1002,"MEAN_ANOMALY":196.0362,"EPHEMERIS_TYPE":0,"CLASSIFICATION_TYPE":"U","NORAD_CAT_ID":40024,"ELEMENT_SET_NO":999,"REV_AT_EPOCH":63790,"BSTAR":0.00098782236,"MEAN_MOTION_DOT":0.00026861,"MEAN_MOTION_DDOT":0},{"OBJECT_NAME":"QB50P1","OBJECT_ID":"2014-033R","EPOCH":"2026-03-04T11:55:59.542752","MEAN_MOTION":15.16385168,"ECCENTRICITY":0.0007791,"INCLINATION":98.0999,"RA_OF_ASC_NODE":67.4292,"ARG_OF_PERICENTER":214.5862,"MEAN_ANOMALY":145.4863,"EPHEMERIS_TYPE":0,"CLASSIFICATION_TYPE":"U","NORAD_CAT_ID":40025,"ELEMENT_SET_NO":999,"REV_AT_EPOCH":63715,"BSTAR":0.00085696973,"MEAN_MOTION_DOT":0.00016603,"MEAN_MOTION_DDOT":0},{"OBJECT_NAME":"QB50P2","OBJECT_ID":"2014-033Y","EPOCH":"2026-03-04T16:55:30.882720","MEAN_MOTION":15.13555975,"ECCENTRICITY":0.0008106,"INCLINATION":98.0729,"RA_OF_ASC_NODE":54.2225,"ARG_OF_PERICENTER":157.0796,"MEAN_ANOMALY":203.0797,"EPHEMERIS_TYPE":0,"CLASSIFICATION_TYPE":"U","NORAD_CAT_ID":40032,"ELEMENT_SET_NO":999,"REV_AT_EPOCH":63685,"BSTAR":0.00072181,"MEAN_MOTION_DOT":0.00012892,"MEAN_MOTION_DDOT":0},{"OBJECT_NAME":"PERSEUS-M2","OBJECT_ID":"2014-033AD","EPOCH":"2026-03-04T19:24:07.701408","MEAN_MOTION":14.95135256,"ECCENTRICITY":0.00102,"INCLINATION":97.9868,"RA_OF_ASC_NODE":12.3222,"ARG_OF_PERICENTER":290.0188,"MEAN_ANOMALY":69.9933,"EPHEMERIS_TYPE":0,"CLASSIFICATION_TYPE":"U","NORAD_CAT_ID":40037,"ELEMENT_SET_NO":999,"REV_AT_EPOCH":63518,"BSTAR":0.00045827,"MEAN_MOTION_DOT":4.973e-5,"MEAN_MOTION_DDOT":0},{"OBJECT_NAME":"PERSEUS-M1","OBJECT_ID":"2014-033AF","EPOCH":"2026-03-04T18:55:58.900224","MEAN_MOTION":14.95223669,"ECCENTRICITY":0.0009943,"INCLINATION":97.9556,"RA_OF_ASC_NODE":6.3003,"ARG_OF_PERICENTER":287.1114,"MEAN_ANOMALY":72.9017,"EPHEMERIS_TYPE":0,"CLASSIFICATION_TYPE":"U","NORAD_CAT_ID":40039,"ELEMENT_SET_NO":999,"REV_AT_EPOCH":63503,"BSTAR":0.00036969,"MEAN_MOTION_DOT":4.009e-5,"MEAN_MOTION_DDOT":0},{"OBJECT_NAME":"POLYITAN-1","OBJECT_ID":"2014-033AJ","EPOCH":"2026-03-04T12:08:10.487616","MEAN_MOTION":15.29286382,"ECCENTRICITY":0.00089612,"INCLINATION":98.1045,"RA_OF_ASC_NODE":80.1264,"ARG_OF_PERICENTER":142.9202,"MEAN_ANOMALY":217.2657,"EPHEMERIS_TYPE":0,"CLASSIFICATION_TYPE":"U","NORAD_CAT_ID":40042,"ELEMENT_SET_NO":999,"REV_AT_EPOCH":63757,"BSTAR":0.0011583007,"MEAN_MOTION_DOT":0.00032972,"MEAN_MOTION_DDOT":0},{"OBJECT_NAME":"TIGRISAT","OBJECT_ID":"2014-033AK","EPOCH":"2026-03-04T11:13:55.506720","MEAN_MOTION":14.84695897,"ECCENTRICITY":0.00506946,"INCLINATION":97.7659,"RA_OF_ASC_NODE":215.9997,"ARG_OF_PERICENTER":59.1928,"MEAN_ANOMALY":301.4262,"EPHEMERIS_TYPE":0,"CLASSIFICATION_TYPE":"U","NORAD_CAT_ID":40043,"ELEMENT_SET_NO":999,"REV_AT_EPOCH":63008,"BSTAR":0.00042734623,"MEAN_MOTION_DOT":3.648e-5,"MEAN_MOTION_DDOT":0}]
